{"type":"FeatureCollection","features":[
{"type":"Feature","geometry":{"type":"Point","coordinates":[47.5255809,-18.9100122]},"properties":{"admin_level":"2","capital":"yes","ele":"1276","is_capital":"country","loc_name":"Tana","name":"Antananarivo","name:af":"Antananarivo","name:am":"አንታናናሪቮ","name:an":"Antananarivo","name:ar":"أنتاناناريفو","name:ast":"Antananarivu","name:avk":"Antananarivo","name:az":"Antananarivu","name:azb":"آنتاناناریوو","name:ba":"Антананариву","name:be":"Антананарыву","name:be-tarask":"Антананарыву","name:bg":"Антананариво","name:bn":"আন্তানানারিভো","name:bo":"ཨེན་ཊ་ན་ན་རི་བོ།","name:br":"Antananarivo","name:bs":"Antananarivo","name:ca":"Antananarivo","name:cdo":"Antananarivo","name:ce":"Антананариву","name:ceb":"Antananarivo","name:ckb":"ئانتاناناریڤۆ","name:cs":"Antananarivo","name:cy":"Antananarivo","name:da":"Antananarivo","name:de":"Antananarivo","name:diq":"Antananarivo","name:el":"Ανταναναρίβο","name:en":"Antananarivo","name:eo":"Antananarivo","name:es":"Antananarivo","name:et":"Antananarivo","name:eu":"Antananarivo","name:fa":"آنتاناناریوو","name:fi":"Antananarivo","name:fj":"Antananarivo","name:fr":"Antananarivo","name:frr":"Antananarivo","name:fy":"Antananarivo","name:ga":"Antananairíveo","name:gd":"Antananarivo","name:gl":"Antananarivo","name:gv":"Antananarivo","name:ha":"Antananarivo","name:hak":"Antananarivo","name:he":"אנטננריבו","name:hi":"अन्टाननरीवो","name:hr":"Antananarivo","name:hsb":"Antananarivo","name:ht":"Antananarivo","name:hu":"Antananarivo","name:hy":"Անտանանարիվու","name:ia":"Antananarivo","name:id":"Antananarivo","name:ie":"Antananarivo","name:io":"Antananarivo","name:is":"Antananarívó","name:it":"Antananarivo","name:ja":"アンタナナリボ","name:jv":"Antananarivo","name:ka":"ანტანანარივუ","name:kaa":"Antananarivo","name:kbp":"Antananarivo","name:kg":"Antananarivo","name:kk":"Антананариву","name:kn":"ಅನ್ಟಾನನರೀವೋ","name:ko":"안타나나리보","name:ku":"Antananarivo","name:kw":"Antananarivo","name:ky":"Антананариву","name:la":"Antananarivo","name:lb":"Antananarivo","name:lfn":"Antananarivo","name:lij":"Antananarïvo","name:lmo":"Antananarivo","name:lo":"ອັນຕານານາຣິໂວ","name:lt":"Antananaryvas","name:lv":"Antananarivu","name:mg":"Antananarivo","name:mi":"Antananarivo","name:mk":"Антананариво","name:ml":"ആന്റനനറീവൊ","name:mn":"Антананариву","name:mr":"अंतानानारिव्हो","name:mrj":"Антананариву","name:ms":"Antananarivo","name:nah":"Antananarivo","name:nap":"Antananarivo","name:nds":"Antananarivo","name:nl":"Antananarivo","name:nn":"Antananarivo","name:no":"Antananarivo","name:oc":"Antananarivo","name:olo":"Antananarivu","name:os":"Антананариву","name:pa":"ਅੰਤਾਨਾਨਾਰੀਵੋ","name:pap":"Antananarivo","name:pl":"Antananarywa","name:pms":"Antananarivo","name:pnb":"انٹاناناریوو","name:ps":"آنتاناناریوو","name:pt":"Antananarivo","name:ro":"Antananarivo","name:ru":"Антананариву","name:rw":"Antananarivo","name:sc":"Antananarivo","name:sco":"Antananarivo","name:sd":"انٽاناناريوو","name:sh":"Antananarivo","name:simple":"Antananarivo","name:sk":"Antananarivo","name:sl":"Antananarivo","name:smn":"Antananarivo","name:sn":"Antananarivo","name:so":"Antananarifo","name:sq":"Antananarivo","name:sr":"Антананариво","name:sv":"Antananarivo","name:sw":"Antananarivo","name:szl":"Antananarivo","name:ta":"அண்டனானரீவோ","name:tg":"Антананариву","name:th":"อันตานานาริโว","name:tl":"Antananarivo","name:tr":"Antananarivo","name:udm":"Антананариву","name:uk":"Антананаріву","name:ur":"اینٹانانیریو","name:uz":"Antananarivu","name:vec":"Antananarivo","name:vep":"Antananarivu","name:vi":"Antananarivo","name:vro":"Antananarivo","name:wal":"Anttananaarivo","name:war":"Antananarivo","name:wo":"Antananariwo","name:wuu":"塔那那利佛","name:xmf":"ანტანანარივუ","name:yi":"אנטאנאנאריווא","name:yo":"Antananarivo","name:yue":"安塔那那利佛","name:zh":"塔那那利佛","name:zh_min_nan":"Antananarivo","name:zu":"Antananarivo","old_name":"Tananarive","place":"city","population":"1391433","population:date":"2022","source:name:oc":"Lo Congrès","source:population":"Instat 2018","wikidata":"Q3915","wikipedia":"en:Antananarivo"}},
{"type":"Feature","geometry":{"type":"Point","coordinates":[47.5161466,-18.9099527]},"properties":{"name":"Isotry","place":"suburb"}},
{"type":"Feature","geometry":{"type":"Point","coordinates":[47.5203307,-18.9065351]},"properties":{"name":"Tsaralalàna","place":"suburb"}},
{"type":"Feature","geometry":{"type":"Point","coordinates":[47.5262845,-18.9083181]},"properties":{"name":"Analakely","place":"suburb"}},
{"type":"Feature","geometry":{"type":"Point","coordinates":[47.5248045,-18.9184037]},"properties":{"name":"Mahamasina","place":"suburb"}},
{"type":"Feature","geometry":{"type":"Point","coordinates":[47.5250179,-18.9102957]},"properties":{"name":"Antaninarenina","place":"suburb"}},
{"type":"Feature","geometry":{"type":"Point","coordinates":[47.5203564,-18.9095601]},"properties":{"name":"Ampasamadinika","place":"neighbourhood"}},
{"type":"Feature","geometry":{"type":"Point","coordinates":[47.5262619,-18.916001]},"properties":{"name":"Amparibe","place":"suburb"}},
{"type":"Feature","geometry":{"type":"Point","coordinates":[47.5208522,-18.9118395]},"properties":{"name":"Isoraka","place":"suburb"}},
{"type":"Feature","geometry":{"type":"Point","coordinates":[47.5294192,-18.8929323]},"properties":{"name":"Ambodivona","place":"suburb"}},
{"type":"Feature","geometry":{"type":"Point","coordinates":[47.5314153,-18.9176963]},"properties":{"name":"Andohalo","place":"suburb"}},
{"type":"Feature","geometry":{"type":"Point","coordinates":[47.5192199,-18.9115863]},"properties":{"name":"Ampatsakana","place":"neighbourhood"}},
{"type":"Feature","geometry":{"type":"Point","coordinates":[47.5258109,-18.8978507]},"properties":{"name":"Ankadifotsy","place":"suburb"}},
{"type":"Feature","geometry":{"type":"Point","coordinates":[47.5289801,-18.9349872]},"properties":{"name":"Tsarafaritra Tsimbazaza","place":"suburb"}},
{"type":"Feature","geometry":{"type":"Point","coordinates":[47.5435412,-18.9297013]},"properties":{"name":"Ambohimiandra","place":"suburb"}},
{"type":"Feature","geometry":{"type":"Point","coordinates":[47.5547258,-18.9390319]},"properties":{"name":"Ankadindratombo","place":"suburb"}},
{"type":"Feature","geometry":{"type":"Point","coordinates":[47.5355988,-18.9131588]},"properties":{"name":"Ampasanisadoda","place":"neighbourhood"}},
{"type":"Feature","geometry":{"type":"Point","coordinates":[47.5356695,-18.9176936]},"properties":{"name":"Ankazotokana","place":"suburb"}},
{"type":"Feature","geometry":{"type":"Point","coordinates":[47.5337061,-18.9178484]},"properties":{"name":"Anjohy","place":"neighbourhood"}},
{"type":"Feature","geometry":{"type":"Point","coordinates":[47.5390936,-18.9216501]},"properties":{"name":"Volosarika","place":"neighbourhood"}},
{"type":"Feature","geometry":{"type":"Point","coordinates":[47.5364959,-18.9098911]},"properties":{"name":"Ambodirotra","place":"neighbourhood"}},
{"type":"Feature","geometry":{"type":"Point","coordinates":[47.5338925,-18.9088275]},"properties":{"name":"Ankadivato","place":"suburb"}},
{"type":"Feature","geometry":{"type":"Point","coordinates":[47.5449553,-18.9182962]},"properties":{"name":"Tsiadana","place":"suburb"}},
{"type":"Feature","geometry":{"type":"Point","coordinates":[47.5397786,-18.9051156]},"properties":{"name":"Betongolo","place":"suburb"}},
{"type":"Feature","geometry":{"type":"Point","coordinates":[47.5384057,-18.9092429]},"properties":{"name":"Ampahibe","place":"suburb"}},
{"type":"Feature","geometry":{"type":"Point","coordinates":[47.5438721,-18.9001063]},"properties":{"name":"Avaradoha","place":"suburb"}},
{"type":"Feature","geometry":{"type":"Point","coordinates":[47.545835,-18.8966274]},"properties":{"name":"Ampasampito","place":"suburb"}},
{"type":"Feature","geometry":{"type":"Point","coordinates":[47.5476099,-18.9029594]},"properties":{"name":"Ampandrianomby","place":"neighbourhood"}},
{"type":"Feature","geometry":{"type":"Point","coordinates":[47.5420605,-18.9133773]},"properties":{"name":"Avaratr'Antanimora","place":"suburb"}},
{"type":"Feature","geometry":{"type":"Point","coordinates":[47.5488231,-18.8898644]},"properties":{"name":"Nanisana","place":"suburb"}},
{"type":"Feature","geometry":{"type":"Point","coordinates":[47.5408412,-18.891385]},"properties":{"name":"Soavimbahoaka","place":"neighbourhood"}},
{"type":"Feature","geometry":{"type":"Point","coordinates":[47.5371424,-18.8844741]},"properties":{"name":"Amboditsiry","place":"suburb"}},
{"type":"Feature","geometry":{"type":"Point","coordinates":[47.5297513,-18.9396435]},"properties":{"name":"Ankaditoho","place":"suburb"}},
{"type":"Feature","geometry":{"type":"Point","coordinates":[47.5336896,-18.9362656]},"properties":{"name":"Marohoho","place":"neighbourhood"}},
{"type":"Feature","geometry":{"type":"Point","coordinates":[47.524023,-18.9381282]},"properties":{"name":"Soanierana","place":"suburb"}},
{"type":"Feature","geometry":{"type":"Point","coordinates":[47.5209189,-18.9228046]},"properties":{"name":"Andrefan'Ambohijanahary","place":"suburb"}},
{"type":"Feature","geometry":{"type":"Point","coordinates":[47.5234133,-18.9430303]},"properties":{"name":"Ankadimbahoaka","place":"suburb"}},
{"type":"Feature","geometry":{"type":"Point","coordinates":[47.5185995,-18.9363166]},"properties":{"name":"Madera Namontana","place":"suburb"}},
{"type":"Feature","geometry":{"type":"Point","coordinates":[47.5084372,-18.9182911]},"properties":{"name":"Andavamamba","place":"suburb"}},
{"type":"Feature","geometry":{"type":"Point","coordinates":[47.5143,-18.9081912]},"properties":{"name":"Bekiraro","place":"neighbourhood"}},
{"type":"Feature","geometry":{"type":"Point","coordinates":[47.5070299,-18.899991]},"properties":{"name":"Ankasina","place":"neighbourhood"}},
{"type":"Feature","geometry":{"type":"Point","coordinates":[47.5143932,-18.9249254]},"properties":{"name":"Anosibe","place":"suburb"}},
{"type":"Feature","geometry":{"type":"Point","coordinates":[47.5010319,-18.923307]},"properties":{"name":"Ilanivato","place":"suburb"}},
{"type":"Feature","geometry":{"type":"Point","coordinates":[47.5105423,-18.9148772]},"properties":{"name":"Anatihazo","place":"suburb"}},
{"type":"Feature","geometry":{"type":"Point","coordinates":[47.5417796,-18.9410645]},"properties":{"name":"Ambohitsoa","place":"suburb"}},
{"type":"Feature","geometry":{"type":"Point","coordinates":[47.5330182,-18.946544]},"properties":{"name":"Androndrakely","place":"suburb"}},
{"type":"Feature","geometry":{"type":"Point","coordinates":[47.5459118,-18.938896]},"properties":{"name":"Mahazoarivo","place":"suburb"}},
{"type":"Feature","geometry":{"type":"Point","coordinates":[47.550035,-18.9343683]},"properties":{"name":"Mandroseza","place":"suburb"}},
{"type":"Feature","geometry":{"type":"Point","coordinates":[47.5592986,-18.9180882]},"properties":{"name":"Antsahamamy","place":"neighbourhood"}},
{"type":"Feature","geometry":{"type":"Point","coordinates":[47.5343448,-18.9206952]},"properties":{"name":"Ambavahadimitafo","place":"neighbourhood"}},
{"type":"Feature","geometry":{"type":"Point","coordinates":[47.532604,-18.9171865]},"properties":{"name":"Ambohimanoro","place":"neighbourhood"}},
{"type":"Feature","geometry":{"type":"Point","coordinates":[47.5295168,-18.9149588]},"properties":{"name":"Ambatovinaky","place":"neighbourhood"}},
{"type":"Feature","geometry":{"type":"Point","coordinates":[47.5270921,-18.9129111]},"properties":{"name":"Ambatonakanga","place":"neighbourhood"}},
{"type":"Feature","geometry":{"type":"Point","coordinates":[47.5286639,-18.9114876]},"properties":{"name":"Ambohijatovo","place":"suburb"}},
{"type":"Feature","geometry":{"type":"Point","coordinates":[47.5297512,-18.9097137]},"properties":{"name":"Faravohitra","place":"suburb"}},
{"type":"Feature","geometry":{"type":"Point","coordinates":[47.5319924,-18.9097672]},"properties":{"name":"Mangarivotra","place":"neighbourhood"}},
{"type":"Feature","geometry":{"type":"Point","coordinates":[47.556178,-18.8880879]},"properties":{"name":"Ankerana","place":"suburb"}},
{"type":"Feature","geometry":{"type":"Point","coordinates":[47.5421328,-18.8819994]},"properties":{"name":"Andranobevava","place":"neighbourhood"}},
{"type":"Feature","geometry":{"type":"Point","coordinates":[47.5372416,-18.8952195]},"properties":{"name":"Anjanahary","place":"suburb"}},
{"type":"Feature","geometry":{"type":"Point","coordinates":[47.5495101,-18.893801]},"properties":{"name":"Iadiambola","place":"neighbourhood"}},
{"type":"Feature","geometry":{"type":"Point","coordinates":[47.5333981,-18.8904911]},"properties":{"name":"Manjakaray","place":"suburb"}},
{"type":"Feature","geometry":{"type":"Point","coordinates":[47.5311422,-18.8984389]},"properties":{"name":"Andravoahangy","place":"suburb"}},
{"type":"Feature","geometry":{"type":"Point","coordinates":[47.5326855,-18.8966786]},"properties":{"name":"Mascar","place":"suburb"}},
{"type":"Feature","geometry":{"type":"Point","coordinates":[47.5291691,-18.9104698]},"properties":{"name":"Mandrosoa","place":"neighbourhood"}},
{"type":"Feature","geometry":{"type":"Point","coordinates":[47.5384871,-18.9013856]},"properties":{"name":"Ambodimanga","place":"neighbourhood"}},
{"type":"Feature","geometry":{"type":"Point","coordinates":[47.53398,-18.8993603]},"properties":{"name":"Mahavoky","place":"neighbourhood"}},
{"type":"Feature","geometry":{"type":"Point","coordinates":[47.533741,-18.9038641]},"properties":{"name":"Ampandrana","place":"suburb"}},
{"type":"Feature","geometry":{"type":"Point","coordinates":[47.5507314,-18.8967036]},"properties":{"name":"Ambohimirary","place":"suburb"}},
{"type":"Feature","geometry":{"type":"Point","coordinates":[47.5371628,-18.9055324]},"properties":{"name":"Ampandrana Atsinanana","place":"suburb"}},
{"type":"Feature","geometry":{"type":"Point","coordinates":[47.5368673,-18.9140766]},"properties":{"name":"Ankorahotra","place":"suburb"}},
{"type":"Feature","geometry":{"type":"Point","coordinates":[47.5365023,-18.9113363]},"properties":{"name":"Antsakaviro","place":"suburb"}},
{"type":"Feature","geometry":{"type":"Point","coordinates":[47.540576,-18.9115852]},"properties":{"name":"Ambaranjana","place":"neighbourhood"}},
{"type":"Feature","geometry":{"type":"Point","coordinates":[47.5403358,-18.9097014]},"properties":{"name":"Cité Planton","place":"neighbourhood"}},
{"type":"Feature","geometry":{"type":"Point","coordinates":[47.5362974,-18.9016339]},"properties":{"name":"Besarety","place":"suburb"}},
{"type":"Feature","geometry":{"type":"Point","coordinates":[47.542471,-18.8852609]},"properties":{"name":"Ambohitrinimanga","place":"neighbourhood"}},
{"type":"Feature","geometry":{"type":"Point","coordinates":[47.5135602,-18.8918482]},"properties":{"name":"Ankazomanga","place":"suburb"}},
{"type":"Feature","geometry":{"type":"Point","coordinates":[47.5153853,-18.90466]},"properties":{"name":"Antohomadinika","place":"suburb"}},
{"type":"Feature","geometry":{"type":"Point","coordinates":[47.5287785,-18.9238614]},"properties":{"name":"Ankadilalana","place":"suburb"}},
{"type":"Feature","geometry":{"type":"Point","coordinates":[47.5418577,-18.9238832]},"properties":{"name":"Ambatoroka","place":"suburb"}},
{"type":"Feature","geometry":{"type":"Point","coordinates":[47.5555546,-18.9053244]},"properties":{"name":"Andraisoro","place":"suburb"}},
{"type":"Feature","geometry":{"type":"Point","coordinates":[47.5087729,-18.8842626]},"properties":{"name":"Andraharo","place":"suburb"}},
{"type":"Feature","geometry":{"type":"Point","coordinates":[47.5076745,-18.9095885]},"properties":{"name":"67 ha Atsimo","place":"neighbourhood"}},
{"type":"Feature","geometry":{"type":"Point","coordinates":[47.5013558,-18.9373987]},"properties":{"name":"Anosizato Atsinanana","place":"suburb"}},
{"type":"Feature","geometry":{"type":"Point","coordinates":[47.5121372,-18.9283027]},"properties":{"name":"Mandrangobato","place":"suburb"}},
{"type":"Feature","geometry":{"type":"Point","coordinates":[47.5169492,-18.928559]},"properties":{"name":"Ambohibarikely","place":"suburb"}},
{"type":"Feature","geometry":{"type":"Point","coordinates":[47.5095784,-18.9356629]},"properties":{"name":"Angarangarana","place":"suburb"}},
{"type":"Feature","geometry":{"type":"Point","coordinates":[47.5245164,-18.9339924]},"properties":{"name":"Fiadanana","place":"suburb"}},
{"type":"Feature","geometry":{"type":"Point","coordinates":[47.5225067,-18.9291628]},"properties":{"name":"Mananjara","place":"suburb"}},
{"type":"Feature","geometry":{"type":"Point","coordinates":[47.5401717,-18.9351352]},"properties":{"name":"Morarano","place":"suburb"}},
{"type":"Feature","geometry":{"type":"Point","coordinates":[47.5380777,-18.9372398]},"properties":{"name":"Andrangaranga","place":"neighbourhood"}},
{"type":"Feature","geometry":{"type":"Point","coordinates":[47.5366079,-18.9419992]},"properties":{"name":"Ampamantanana Androndrabe","place":"suburb"}},
{"type":"Feature","geometry":{"type":"Point","coordinates":[47.5459205,-18.9343476]},"properties":{"name":"Ambohidraserika","place":"neighbourhood"}},
{"type":"Feature","geometry":{"type":"Point","coordinates":[47.5424811,-18.9333085]},"properties":{"name":"Fenomanana","place":"neighbourhood"}},
{"type":"Feature","geometry":{"type":"Point","coordinates":[47.5472508,-18.9284006]},"properties":{"name":"Ankadivory","place":"neighbourhood"}},
{"type":"Feature","geometry":{"type":"Point","coordinates":[47.5199786,-18.917129]},"properties":{"name":"Anosy","place":"suburb"}},
{"type":"Feature","geometry":{"type":"Point","coordinates":[47.5072684,-18.9021422]},"properties":{"name":"67 ha Avaratra Andrefana","place":"neighbourhood"}},
{"type":"Feature","geometry":{"type":"Point","coordinates":[47.5092176,-18.9050014]},"properties":{"name":"67 ha","place":"suburb"}},
{"type":"Feature","geometry":{"type":"Point","coordinates":[47.5130263,-18.8989708]},"properties":{"name":"Antsalovana","place":"neighbourhood"}},
{"type":"Feature","geometry":{"type":"Point","coordinates":[47.5106553,-18.9074005]},"properties":{"name":"Ambodinisotry","place":"suburb"}},
{"type":"Feature","geometry":{"type":"Point","coordinates":[47.5170925,-18.9132011]},"properties":{"name":"Ampefiloha","place":"suburb"}},
{"type":"Feature","geometry":{"type":"Point","coordinates":[47.5256863,-18.9023148]},"properties":{"name":"Behoririka","place":"suburb"}},
{"type":"Feature","geometry":{"type":"Point","coordinates":[47.521745,-18.9039603]},"properties":{"name":"Soarano","place":"suburb"}},
{"type":"Feature","geometry":{"type":"Point","coordinates":[47.5207728,-18.8976398]},"properties":{"name":"Antanimena","place":"suburb"}},
{"type":"Feature","geometry":{"type":"Point","coordinates":[47.5162534,-18.8914428]},"properties":{"name":"Tsaramasay","place":"neighbourhood"}},
{"type":"Feature","geometry":{"type":"Point","coordinates":[47.522924,-18.8859714]},"properties":{"name":"Ankorondrano","place":"suburb"}},
{"type":"Feature","geometry":{"type":"Point","coordinates":[47.5562075,-18.8950666]},"properties":{"name":"Ambohidahy","place":"suburb"}},
{"type":"Feature","geometry":{"type":"Point","coordinates":[47.5415968,-18.9454038]},"properties":{"name":"Ankazolava","place":"neighbourhood"}},
{"type":"Feature","geometry":{"type":"Point","coordinates":[47.5366168,-18.9309737]},"properties":{"name":"Manakambahiny","place":"suburb"}},
{"type":"Feature","geometry":{"type":"Point","coordinates":[47.5441288,-18.9089546]},"properties":{"name":"Andrainarivo","place":"neighbourhood"}},
{"type":"Feature","geometry":{"type":"Point","coordinates":[47.5258428,-18.9128623]},"properties":{"name":"Ambohidahy","place":"neighbourhood"}},
{"type":"Feature","geometry":{"type":"Point","coordinates":[47.5354706,-18.9279959]},"properties":{"name":"Ankerakely","place":"neighbourhood"}},
{"type":"Feature","geometry":{"type":"Point","coordinates":[47.55076,-18.9037083]},"properties":{"name":"Tsarahonenana","place":"suburb"}},
{"type":"Feature","geometry":{"type":"Point","coordinates":[47.5519406,-18.9253048]},"properties":{"name":"Andohanimandroseza","place":"suburb"}},
{"type":"Feature","geometry":{"type":"Point","coordinates":[47.5487971,-18.9102098]},"properties":{"name":"Antsahameva","place":"neighbourhood"}},
{"type":"Feature","geometry":{"type":"Point","coordinates":[47.5577342,-18.9259831]},"properties":{"name":"Ambohipo","place":"suburb"}},
{"type":"Feature","geometry":{"type":"Point","coordinates":[47.5391554,-18.9188124]},"properties":{"name":"Ambanidia","place":"suburb"}},
{"type":"Feature","geometry":{"type":"Point","coordinates":[47.5478055,-18.9126975]},"properties":{"name":"Fort Duchesne","place":"neighbourhood"}},
{"type":"Feature","geometry":{"type":"Point","coordinates":[47.5052176,-18.9200498]},"properties":{"name":"Ambilanibe","place":"neighbourhood"}},
{"type":"Feature","geometry":{"type":"Point","coordinates":[47.5215434,-18.9108158]},"properties":{"name":"Ambatonilita","place":"neighbourhood"}},
{"type":"Feature","geometry":{"type":"Point","coordinates":[47.5486279,-18.8971034]},"properties":{"name":"Ambatokaranana","place":"neighbourhood"}},
{"type":"Feature","geometry":{"type":"Point","coordinates":[47.522344,-18.9093201]},"properties":{"name":"Antsahavola","place":"neighbourhood"}},
{"type":"Feature","geometry":{"type":"Point","coordinates":[47.5373108,-18.9242967]},"properties":{"name":"Miandrarivo","place":"neighbourhood"}},
{"type":"Feature","geometry":{"type":"Point","coordinates":[47.5576144,-18.8991511]},"properties":{"name":"Ampanotokana","place":"suburb"}},
{"type":"Feature","geometry":{"type":"Point","coordinates":[47.5436005,-18.9038048]},"properties":{"name":"Ambohitrakely","place":"suburb"}},
{"type":"Feature","geometry":{"type":"Point","coordinates":[47.5331613,-18.9064159]},"properties":{"name":"Bel'air","place":"neighbourhood"}},
{"type":"Feature","geometry":{"type":"Point","coordinates":[47.5336951,-18.9151853]},"properties":{"name":"Antsahabe","place":"neighbourhood"}},
{"type":"Feature","geometry":{"type":"Point","coordinates":[47.5397428,-18.9152684]},"properties":{"name":"Ampasanimalo","place":"neighbourhood"}},
{"type":"Feature","geometry":{"type":"Point","coordinates":[47.5293124,-18.9193744]},"properties":{"name":"Tsimialonjafy","place":"neighbourhood"}},
{"type":"Feature","geometry":{"type":"Point","coordinates":[47.5287491,-18.9218762]},"properties":{"name":"Ambanin'Ampamarinana","place":"neighbourhood"}},
{"type":"Feature","geometry":{"type":"Point","coordinates":[47.5256002,-18.9225054]},"properties":{"name":"Mahamasina Atsimo","place":"neighbourhood"}},
{"type":"Feature","geometry":{"type":"Point","coordinates":[47.5113818,-18.9403363]},"properties":{"name":"Miadana","place":"neighbourhood"}},
{"type":"Feature","geometry":{"type":"Point","coordinates":[47.5153756,-18.946288]},"properties":{"name":"Fasan'ny Karàna","place":"neighbourhood"}},
{"type":"Feature","geometry":{"type":"Point","coordinates":[47.5461244,-18.9237334]},"properties":{"name":"Ambatoroka Ambany","place":"neighbourhood"}},
{"type":"Feature","geometry":{"type":"Point","coordinates":[47.5464839,-18.9487665]},"properties":{"name":"Ankadiaivo","place":"neighbourhood"}},
{"type":"Feature","geometry":{"type":"Point","coordinates":[47.5240123,-18.899529]},"properties":{"name":"Ankaditapaka","place":"neighbourhood"}},
{"type":"Feature","geometry":{"type":"Point","coordinates":[47.5001085,-18.9144621]},"properties":{"name":"Ambodirano","place":"suburb"}},
{"type":"Feature","geometry":{"type":"Point","coordinates":[47.5133988,-18.9125971]},"properties":{"name":"Manarintsoa","place":"suburb"}},
{"type":"Feature","geometry":{"type":"Point","coordinates":[47.5117975,-18.9100673]},"properties":{"name":"Andranomanalina","place":"suburb"}},
{"type":"Feature","geometry":{"type":"Point","coordinates":[47.5061917,-18.9266487]},"properties":{"name":"Ivolaniray","place":"neighbourhood"}},
{"type":"Feature","geometry":{"type":"Point","coordinates":[47.5174946,-18.9319438]},"properties":{"name":"Ouest Mananjara","place":"suburb"}},
{"type":"Feature","geometry":{"type":"Point","coordinates":[47.5119102,-18.902668]},"properties":{"name":"67 ha Avaratra Atsinanana","place":"neighbourhood"}},
{"type":"Feature","geometry":{"type":"Point","coordinates":[47.5336736,-18.9317941]},"properties":{"name":"Andohamandry","place":"neighbourhood"}},
{"type":"Feature","geometry":{"type":"Point","coordinates":[47.5316057,-18.9274809]},"properties":{"alt_name":"La Haute","name":"Haute Ville","place":"suburb"}},
{"type":"Feature","geometry":{"type":"Point","coordinates":[47.5319302,-18.9304113]},"properties":{"name":"Ambohipotsy","place":"neighbourhood"}},
{"type":"Feature","geometry":{"type":"Point","coordinates":[47.5239158,-18.9087326]},"properties":{"name":"Ambatomena","place":"neighbourhood"}},
{"type":"Feature","geometry":{"type":"Point","coordinates":[47.525627,-18.9050583]},"properties":{"name":"Ambodifilao","place":"neighbourhood"}},
{"type":"Feature","geometry":{"type":"Point","coordinates":[47.5410068,-18.8979379]},"properties":{"name":"Soavinandriana","place":"neighbourhood"}},
{"type":"Feature","geometry":{"type":"Point","coordinates":[47.5377667,-18.8910075]},"properties":{"name":"Ambatomainty","place":"suburb"}},
{"type":"Feature","geometry":{"type":"Point","coordinates":[47.5493354,-18.9146676]},"properties":{"name":"Ankatso","place":"suburb"}}
]}
